     2.11           N: GPS NAV DATA                         RINEX VERSION / TYPE
teqc  2019Feb25                         20230504 17:04:38UTCPGM / RUN BY / DATE
Linux2.6.32-573.12.1.el6.x86_64|x86_64|gcc|Win64-MinGW64|=+ COMMENT
                                                            END OF HEADER
23 21 10  2  4  0  0.0 5.029095336795D-05-4.774847184308D-12 0.000000000000D+00
    1.580000000000D+02-1.001250000000D+02 4.414469594664D-09-2.216150682497D+00
   -5.057081580162D-06 1.732497126795D-03 5.153939127922D-06 5.153676305771D+03
    5.328000000000D+05 1.490116119385D-08 1.599741034355D+00 2.980232238770D-08
    9.653500529902D-01 2.825937500000D+02 2.701904953324D+00-8.174983378014D-09
   -1.385772008681D-10 1.000000000000D+00 2.177000000000D+03 0.000000000000D+00
    2.000000000000D+00 0.000000000000D+00-8.381903171539D-09 9.260000000000D+02
    5.287860000000D+05 4.000000000000D+00
 8 21 10  2  3 59 44.0-3.858003765345D-05-1.477928890381D-12 0.000000000000D+00
    4.000000000000D+00 4.034375000000D+01 4.313036798152D-09 5.510978972452D-01
    2.155080437660D-06 6.545775104314D-03 9.650364518166D-06 5.153662651062D+03
    5.327840000000D+05 9.313225746155D-08-4.863230007107D-01 2.607703208923D-08
    9.663316198193D-01 1.920937500000D+02 5.391939192482D-02-7.960331579762D-09
   -2.321525272275D-10 1.000000000000D+00 2.177000000000D+03 0.000000000000D+00
    2.000000000000D+00 0.000000000000D+00 5.122274160385D-09 4.000000000000D+00
    5.291280000000D+05 4.000000000000D+00
21 21 10  2  4  0  0.0 1.455964520574D-04 1.932676241267D-12 0.000000000000D+00
    5.200000000000D+01 4.918750000000D+01 4.820200780710D-09 5.894645374726D-01
    2.125278115273D-06 2.411809493788D-02 4.883855581284D-06 5.153633111954D+03
    5.328000000000D+05-8.381903171539D-08 5.030110090219D-01-3.501772880554D-07
    9.584816599227D-01 2.905625000000D+02-1.077398591347D+00-8.722863342271D-09
    8.178912113090D-11 1.000000000000D+00 2.177000000000D+03 0.000000000000D+00
    2.000000000000D+00 0.000000000000D+00-1.024454832077D-08 5.200000000000D+01
    5.304480000000D+05 4.000000000000D+00
16 21 10  2  6  0  0.0-4.002000205219D-04-6.366462912410D-12 0.000000000000D+00
    7.900000000000D+01-7.906250000000D+00 4.490544192047D-09 2.378034714577D+00
   -4.600733518600D-07 1.226070174016D-02 7.867813110352D-06 5.153762376785D+03
    5.400000000000D+05-1.713633537292D-07-1.424708297505D+00-2.495944499969D-07
    9.717000902948D-01 2.347500000000D+02 6.810392856884D-01-7.827111744907D-09
   -3.946592962867D-10 1.000000000000D+00 2.177000000000D+03 0.000000000000D+00
    2.000000000000D+00 0.000000000000D+00-1.024454832077D-08 7.900000000000D+01
    5.328180000000D+05 4.000000000000D+00
26 21 10  2  6  0  0.0 1.404634676874D-04 4.092726157978D-12 0.000000000000D+00
    5.800000000000D+01-6.500000000000D+00 5.266647948455D-09-2.899681205030D+00
   -3.315508365631D-07 6.176994065754D-03 6.875023245811D-06 5.153626478195D+03
    5.400000000000D+05-6.705522537231D-08-1.563001379933D+00-9.126961231232D-08
    9.399598574667D-01 2.390312500000D+02 2.962107998088D-01-8.268558704374D-09
   -3.443000557650D-10 1.000000000000D+00 2.177000000000D+03 0.000000000000D+00
    2.000000000000D+00 0.000000000000D+00 6.984919309616D-09 5.800000000000D+01
    5.328180000000D+05 4.000000000000D+00
27 21 10  2  6  0  0.0-2.007368020713D-04-5.115907697473D-12 0.000000000000D+00
    7.500000000000D+01 5.765625000000D+01 4.093027633887D-09 1.476138411433D+00
    3.131106495857D-06 9.536044672132D-03 1.055002212524D-05 5.153652339935D+03
    5.400000000000D+05-1.136213541031D-07-4.680835911833D-01 1.806765794754D-07
    9.749808142873D-01 1.830312500000D+02 6.325152541363D-01-7.918186967127D-09
   -1.675069773380D-10 1.000000000000D+00 2.177000000000D+03 0.000000000000D+00
    2.000000000000D+00 0.000000000000D+00 1.862645149231D-09 7.500000000000D+01
    5.328180000000D+05 4.000000000000D+00
 8 21 10  2  5 59 44.0-3.859028220177D-05-1.477928890381D-12 0.000000000000D+00
    6.000000000000D+00 5.465625000000D+01 4.259463138023D-09 1.600861813932D+00
    3.058463335037D-06 6.547005148605D-03 1.056119799614D-05 5.153668350220D+03
    5.399840000000D+05 7.264316082001D-08-4.863802490839D-01 1.117587089539D-07
    9.663299389264D-01 1.758750000000D+02 5.434002183431D-02-7.943188008521D-09
   -2.142946405177D-10 1.000000000000D+00 2.177000000000D+03 0.000000000000D+00
    2.000000000000D+00 0.000000000000D+00 5.122274160385D-09 6.000000000000D+00
    5.328180000000D+05 4.000000000000D+00
10 21 10  2  6  0  0.0-2.151997759938D-04-7.958078640513D-12 0.000000000000D+00
    8.900000000000D+01-1.063750000000D+02 4.284821337150D-09-2.685879720048D+00
   -5.465000867844D-06 6.982349790633D-03 5.362555384636D-06 5.153677095413D+03
    5.400000000000D+05 3.725290298462D-09 1.623844575873D+00-4.097819328308D-08
    9.703285636338D-01 2.807500000000D+02-2.584710027159D+00-8.005333454271D-09
   -1.832219176426D-10 1.000000000000D+00 2.177000000000D+03 0.000000000000D+00
    2.000000000000D+00 0.000000000000D+00 2.328306436539D-09 8.900000000000D+01
    5.328180000000D+05 4.000000000000D+00
18 21 10  2  6  0  0.0 3.155367448926D-04-4.774847184308D-12 0.000000000000D+00
    1.440000000000D+02 4.053125000000D+01 4.474114936274D-09-4.315649237028D-01
    1.991167664528D-06 1.986794057302D-03 3.518536686897D-06 5.153645553589D+03
    5.400000000000D+05 2.048909664154D-08 5.999497672760D-01-5.960464477539D-08
    9.694750182287D-01 3.182187500000D+02 2.975829616688D+00-8.278201963197D-09
    1.039329006511D-10 1.000000000000D+00 2.177000000000D+03 0.000000000000D+00
    2.000000000000D+00 0.000000000000D+00-8.381903171539D-09 6.560000000000D+02
    5.328180000000D+05 4.000000000000D+00
23 21 10  2  6  0  0.0 5.025649443269D-05-4.774847184308D-12 0.000000000000D+00
    1.590000000000D+02-9.843750000000D+01 4.378039505776D-09-1.165681437414D+00
   -4.980713129044D-06 1.732679433189D-03 5.448237061501D-06 5.153677194595D+03
    5.400000000000D+05-9.313225746155D-08 1.599682764865D+00 1.862645149231D-09
    9.653489675050D-01 2.777812500000D+02 2.701613898457D+00-8.128195714834D-09
   -2.175090601254D-10 1.000000000000D+00 2.177000000000D+03 0.000000000000D+00
    2.000000000000D+00 0.000000000000D+00-8.381903171539D-09 9.270000000000D+02
    5.328180000000D+05 4.000000000000D+00
21 21 10  2  6  0  0.0 1.456099562347D-04 1.932676241267D-12 0.000000000000D+00
    5.300000000000D+01 6.090625000000D+01 4.660908431259D-09 1.639578464624D+00
    2.803280949593D-06 2.411842381116D-02 3.214925527573D-06 5.153637281418D+03
    5.400000000000D+05 4.135072231293D-07 5.029506592623D-01-4.097819328308D-08
    9.584846647564D-01 3.039687500000D+02-1.077305791139D+00-8.130338661240D-09
    7.500312418118D-12 1.000000000000D+00 2.177000000000D+03 0.000000000000D+00
    2.000000000000D+00 0.000000000000D+00-1.024454832077D-08 5.300000000000D+01
    5.328180000000D+05 4.000000000000D+00
31 21 10  2  6  0  0.0-1.427899114788D-04-2.046363078989D-12 0.000000000000D+00
    7.200000000000D+01 3.178125000000D+01 4.880917595524D-09-1.800915725220D+00
    1.290813088417D-06 1.022209087387D-02 6.541609764099D-06 5.153613254547D+03
    5.400000000000D+05 2.421438694000D-08-2.537879593923D+00-1.452863216400D-07
    9.558027248371D-01 2.489687500000D+02 3.022311187849D-01-8.091051310478D-09
    4.768055751518D-10 1.000000000000D+00 2.177000000000D+03 0.000000000000D+00
    2.000000000000D+00 0.000000000000D+00-1.303851604462D-08 7.200000000000D+01
    5.328180000000D+05 4.000000000000D+00
 4 21 10  2  6  0  0.0-2.040467225015D-04 3.410605131648D-13 0.000000000000D+00
    7.000000000000D+00-4.578125000000D+01 4.230533361553D-09 1.074810649766D+00
   -2.278015017509D-06 1.413738005795D-03 1.081079244614D-05 5.153695083618D+03
    5.400000000000D+05 9.313225746155D-09 2.707845306272D+00 6.519258022308D-08
    9.610699496782D-01 1.713125000000D+02-3.089675247501D+00-7.772823769309D-09
    2.096515899731D-10 1.000000000000D+00 2.177000000000D+03 0.000000000000D+00
    2.000000000000D+00 0.000000000000D+00-4.190951585770D-09 7.750000000000D+02
    5.328480000000D+05 4.000000000000D+00
 7 21 10  2  6  0  0.0 2.554520033300D-04 6.593836587854D-12 0.000000000000D+00
    3.800000000000D+01 4.159375000000D+01 4.906275794652D-09-1.350453257330D+00
    2.292916178703D-06 1.527952298056D-02 6.165355443954D-06 5.153730533600D+03
    5.400000000000D+05 3.390014171600D-07-2.555435950907D+00 5.401670932770D-08
    9.515360160030D-01 2.498750000000D+02-2.304167414987D+00-8.157482649039D-09
    4.307322274405D-10 1.000000000000D+00 2.177000000000D+03 0.000000000000D+00
    2.000000000000D+00 0.000000000000D+00-1.117587089539D-08 3.800000000000D+01
    5.332260000000D+05 4.000000000000D+00
 1 21 10  2  6  0  0.0 5.511166527867D-04-1.091393642128D-11 0.000000000000D+00
    4.900000000000D+01 5.109375000000D+01 4.210889686172D-09-7.294610343972D-01
    2.695247530937D-06 1.105524296872D-02 4.082918167114D-06 5.153675216675D+03
    5.400000000000D+05 7.450580596924D-09 5.901200520460D-01 2.589076757431D-07
    9.857340404423D-01 3.125937500000D+02 8.892740513880D-01-8.220342410257D-09
    1.067901625246D-10 1.000000000000D+00 2.177000000000D+03 0.000000000000D+00
    2.000000000000D+00 0.000000000000D+00 5.122274160385D-09 4.900000000000D+01
    5.340960000000D+05 4.000000000000D+00
22 21 10  2  6  0  0.0-4.992894828320D-04 9.208633855451D-12 0.000000000000D+00
    9.600000000000D+01-8.700000000000D+01 5.250575850417D-09 3.952897955095D-01
   -4.705041646957D-06 6.730213412084D-03 3.844499588013D-06 5.153721586227D+03
    5.400000000000D+05 8.381903171539D-08 1.522676933995D+00-1.061707735062D-07
    9.362308705051D-01 2.962500000000D+02-8.885816069106D-01-8.699648089548D-09
   -2.653681965077D-10 1.000000000000D+00 2.177000000000D+03 0.000000000000D+00
    2.000000000000D+00 0.000000000000D+00-1.769512891769D-08 9.600000000000D+01
    5.361180000000D+05 4.000000000000D+00
